[
    {
        "Altitude(m)": 702743.0956887681,
        "Argument of Periapsis(deg)": 0.011390121186627068,
        "Eccentricity": 0.0,
        "Inclination(deg)": 45.0,
        "Latitude(deg)": 8.123412225692,
        "Longitude(deg)": 87.38792813842744,
        "Mean Anomaly(deg)": 11.533216647480824,
        "RAAN(deg)": 179.9892480585418,
        "Satellite Name": "Constellation 1 792",
        "Satellite Number": 792,
        "Semi-Major Axis(m)": 7083131.272910544,
        "Time(s)": 190
    },
    {
        "Altitude(m)": 702741.4048097148,
        "Argument of Periapsis(deg)": 0.011450069192872472,
        "Eccentricity": 0.0,
        "Inclination(deg)": 45.0,
        "Latitude(deg)": 8.166190049708726,
        "Longitude(deg)": 87.42755954590722,
        "Mean Anomaly(deg)": 11.59391778773071,
        "RAAN(deg)": 179.9891914693762,
        "Satellite Name": "Constellation 1 792",
        "Satellite Number": 792,
        "Semi-Major Axis(m)": 7083131.272910544,
        "Time(s)": 191
    },
    {
        "Altitude(m)": 702739.7341307647,
        "Argument of Periapsis(deg)": 0.01151001719911788,
        "Eccentricity": 0.0,
        "Inclination(deg)": 45.0,
        "Latitude(deg)": 8.208963105164425,
        "Longitude(deg)": 87.4672003066702,
        "Mean Anomaly(deg)": 11.654618927980621,
        "RAAN(deg)": 179.98913488021066,
        "Satellite Name": "Constellation 1 792",
        "Satellite Number": 792,
        "Semi-Major Axis(m)": 7083131.272910544,
        "Time(s)": 192
    },
    {
        "Altitude(m)": 702738.0836408506,
        "Argument of Periapsis(deg)": 0.011569965205363285,
        "Eccentricity": 0.0,
        "Inclination(deg)": 45.0,
        "Latitude(deg)": 8.251731365400595,
        "Longitude(deg)": 87.50685030289982,
        "Mean Anomaly(deg)": 11.715320068230508,
        "RAAN(deg)": 179.9890782910451,
        "Satellite Name": "Constellation 1 792",
        "Satellite Number": 792,
        "Semi-Major Axis(m)": 7083131.272910544,
        "Time(s)": 193
    },
    {
        "Altitude(m)": 702736.453328826,
        "Argument of Periapsis(deg)": 0.01162991321160869,
        "Eccentricity": 0.0,
        "Inclination(deg)": 45.0,
        "Latitude(deg)": 8.294494803740838,
        "Longitude(deg)": 87.54650992109083,
        "Mean Anomaly(deg)": 11.77602120848042,
        "RAAN(deg)": 179.98902170187952,
        "Satellite Name": "Constellation 1 792",
        "Satellite Number": 792,
        "Semi-Major Axis(m)": 7083131.272910544,
        "Time(s)": 194
    },
    {
        "Altitude(m)": 702734.8431834556,
        "Argument of Periapsis(deg)": 0.011689861217854095,
        "Eccentricity": 0.0,
        "Inclination(deg)": 45.0,
        "Latitude(deg)": 8.337253393490416,
        "Longitude(deg)": 87.58617904346677,
        "Mean Anomaly(deg)": 11.836722348730305,
        "RAAN(deg)": 179.98896511271394,
        "Satellite Name": "Constellation 1 792",
        "Satellite Number": 792,
        "Semi-Major Axis(m)": 7083131.272910544,
        "Time(s)": 195
    },
    {
        "Altitude(m)": 702733.2531934095,
        "Argument of Periapsis(deg)": 0.0117498092240995,
        "Eccentricity": 0.0,
        "Inclination(deg)": 45.0,
        "Latitude(deg)": 8.380007107936398,
        "Longitude(deg)": 87.62585772036847,
        "Mean Anomaly(deg)": 11.897423488980218,
        "RAAN(deg)": 179.98890852354836,
        "Satellite Name": "Constellation 1 792",
        "Satellite Number": 792,
        "Semi-Major Axis(m)": 7083131.272910544,
        "Time(s)": 196
    },
    {
        "Altitude(m)": 702731.6833472803,
        "Argument of Periapsis(deg)": 0.011809757230344905,
        "Eccentricity": 0.0,
        "Inclination(deg)": 45.0,
        "Latitude(deg)": 8.42275592034746,
        "Longitude(deg)": 87.66554600215704,
        "Mean Anomaly(deg)": 11.958124629230106,
        "RAAN(deg)": 179.9888519343828,
        "Satellite Name": "Constellation 1 792",
        "Satellite Number": 792,
        "Semi-Major Axis(m)": 7083131.272910544,
        "Time(s)": 197
    },
    {
        "Altitude(m)": 702730.1336335689,
        "Argument of Periapsis(deg)": 0.011869705236590313,
        "Eccentricity": 0.0,
        "Inclination(deg)": 45.0,
        "Latitude(deg)": 8.465499803973838,
        "Longitude(deg)": 87.70524393921383,
        "Mean Anomaly(deg)": 12.018825769480017,
        "RAAN(deg)": 179.98879534521726,
        "Satellite Name": "Constellation 1 792",
        "Satellite Number": 792,
        "Semi-Major Axis(m)": 7083131.272910544,
        "Time(s)": 198
    },
    {
        "Altitude(m)": 702728.6040406917,
        "Argument of Periapsis(deg)": 0.011929653242835719,
        "Eccentricity": 0.0,
        "Inclination(deg)": 45.0,
        "Latitude(deg)": 8.508238732047191,
        "Longitude(deg)": 87.74495158194073,
        "Mean Anomaly(deg)": 12.079526909729903,
        "RAAN(deg)": 179.98873875605165,
        "Satellite Name": "Constellation 1 792",
        "Satellite Number": 792,
        "Semi-Major Axis(m)": 7083131.272910544,
        "Time(s)": 199
    }
]